{"type": "FeatureCollection", "features": [ {"type": "Feature", "properties": {"norad_id": 57401, "name": "TIANMU-1 09", "group": "weather", "lat": -8.573634109170833, "lon": -135.30980850322234, "alt_km": 488.23918562782274, "timestamp": "2025-12-22T20:43:45.486537+00:00", "meta": {"OBJECT_NAME": "TIANMU-1 09", "OBJECT_ID": "2023-101C", "EPOCH": "2025-12-22T13:37:17.607360", "MEAN_MOTION": 15.28219722, "ECCENTRICITY": 0.00063938, "INCLINATION": 97.2805, "RA_OF_ASC_NODE": 45.5052, "ARG_OF_PERICENTER": 56.9176, "MEAN_ANOMALY": 303.2677, "EPHEMERIS_TYPE": 0, "CLASSIFICATION_TYPE": "U", "NORAD_CAT_ID": 57401, "ELEMENT_SET_NO": 999, "REV_AT_EPOCH": 13465, "BSTAR": 0.00030810086, "MEAN_MOTION_DOT": 8.406e-05, "MEAN_MOTION_DDOT": 0}, "tle": {"line1": "1 57401U 23101C   25356.56756490  .00008406  00000+0  30810-3 0  9999", "line2": "2 57401  97.2805  45.5052 0006393  56.9176 303.2677 15.28219722134652"}}, "geometry": {"type": "Point", "coordinates": [-135.30980850322234, -8.573634109170833]}}, {"type": "Feature", "properties": {"norad_id": 57402, "name": "TIANMU-1 10", "group": "weather", "lat": -0.11327725102773471, "lon": 46.66961182001406, "alt_km": 480.9708107630304, "timestamp": "2025-12-22T20:43:45.486553+00:00", "meta": {"OBJECT_NAME": "TIANMU-1 10", "OBJECT_ID": "2023-101D", "EPOCH": "2025-12-22T14:26:38.049792", "MEAN_MOTION": 15.28211537, "ECCENTRICITY": 0.00081106, "INCLINATION": 97.2884, "RA_OF_ASC_NODE": 46.3989, "ARG_OF_PERICENTER": 54.665, "MEAN_ANOMALY": 305.5347, "EPHEMERIS_TYPE": 0, "CLASSIFICATION_TYPE": "U", "NORAD_CAT_ID": 57402, "ELEMENT_SET_NO": 999, "REV_AT_EPOCH": 13465, "BSTAR": 0.00028422601, "MEAN_MOTION_DOT": 7.749e-05, "MEAN_MOTION_DDOT": 0}, "tle": {"line1": "1 57402U 23101D   25356.60182928  .00007749  00000+0  28423-3 0  9990", "line2": "2 57402  97.2884  46.3989 0008110  54.6650 305.5347 15.28211537134654"}}, "geometry": {"type": "Point", "coordinates": [46.66961182001406, -0.11327725102773471]}}, {"type": "Feature", "properties": {"norad_id": 57490, "name": "FENGYUN 3F", "group": "weather", "lat": -75.9628310733938, "lon": 102.79509183439994, "alt_km": 833.559588380308, "timestamp": "2025-12-22T20:43:45.486572+00:00", "meta": {"OBJECT_NAME": "FENGYUN 3F", "OBJECT_ID": "2023-111A", "EPOCH": "2025-12-22T14:20:08.932704", "MEAN_MOTION": 14.19896032, "ECCENTRICITY": 7.874e-05, "INCLINATION": 98.707, "RA_OF_ASC_NODE": 64.7311, "ARG_OF_PERICENTER": 114.9811, "MEAN_ANOMALY": 245.1448, "EPHEMERIS_TYPE": 0, "CLASSIFICATION_TYPE": "U", "NORAD_CAT_ID": 57490, "ELEMENT_SET_NO": 999, "REV_AT_EPOCH": 12380, "BSTAR": 5.613798e-05, "MEAN_MOTION_DOT": 7.6e-07, "MEAN_MOTION_DDOT": 0}, "tle": {"line1": "1 57490U 23111A   25356.59732561  .00000076  00000+0  56138-4 0  9991", "line2": "2 57490  98.7070  64.7311 0000787 114.9811 245.1448 14.19896032123802"}}, "geometry": {"type": "Point", "coordinates": [102.79509183439994, -75.9628310733938]}}, {"type": "Feature", "properties": {"norad_id": 58584, "name": "ARKTIKA-M 2", "group": "weather", "lat": 43.94353725161424, "lon": -157.0862143678, "alt_km": 24691.069918793386, "timestamp": "2025-12-22T20:43:45.486591+00:00", "meta": {"OBJECT_NAME": "ARKTIKA-M 2", "OBJECT_ID": "2023-198A", "EPOCH": "2025-12-20T07:20:06.590112", "MEAN_MOTION": 2.00602824, "ECCENTRICITY": 0.68654675, "INCLINATION": 63.225, "RA_OF_ASC_NODE": 174.0676, "ARG_OF_PERICENTER": 268.0739, "MEAN_ANOMALY": 18.8406, "EPHEMERIS_TYPE": 0, "CLASSIFICATION_TYPE": "U", "NORAD_CAT_ID": 58584, "ELEMENT_SET_NO": 999, "REV_AT_EPOCH": 1473, "BSTAR": 0, "MEAN_MOTION_DOT": 2.01e-06, "MEAN_MOTION_DDOT": 0}, "tle": {"line1": "1 58584U 23198A   25354.30563183  .00000201  00000+0  00000+0 0  9992", "line2": "2 58584  63.2250 174.0676 6865467 268.0739  18.8406  2.00602824 14734"}}, "geometry": {"type": "Point", "coordinates": [-157.0862143678, 43.94353725161424]}}, {"type": "Feature", "properties": {"norad_id": 58645, "name": "TIANMU-1 11", "group": "weather", "lat": 51.67880257011042, "lon": 6.897306550188796, "alt_km": 491.145661878164, "timestamp": "2025-12-22T20:43:45.486610+00:00", "meta": {"OBJECT_NAME": "TIANMU-1 11", "OBJECT_ID": "2023-205A", "EPOCH": "2025-12-22T14:12:01.092384", "MEAN_MOTION": 15.24711219, "ECCENTRICITY": 0.00075416, "INCLINATION": 97.3593, "RA_OF_ASC_NODE": 16.0418, "ARG_OF_PERICENTER": 268.3007, "MEAN_ANOMALY": 91.7367, "EPHEMERIS_TYPE": 0, "CLASSIFICATION_TYPE": "U", "NORAD_CAT_ID": 58645, "ELEMENT_SET_NO": 999, "REV_AT_EPOCH": 11059, "BSTAR": 0.00025244472, "MEAN_MOTION_DOT": 6.179e-05, "MEAN_MOTION_DDOT": 0}, "tle": {"line1": "1 58645U 23205A   25356.59167931  .00006179  00000+0  25244-3 0  9994", "line2": "2 58645  97.3593  16.0418 0007541 268.3007  91.7367 15.24711219110591"}}, "geometry": {"type": "Point", "coordinates": [6.897306550188796, 51.67880257011042]}}, {"type": "Feature", "properties": {"norad_id": 58646, "name": "TIANMU-1 12", "group": "weather", "lat": -77.88003857075165, "lon": 159.1154222862589, "alt_km": 495.44592124684095, "timestamp": "2025-12-22T20:43:45.486626+00:00", "meta": {"OBJECT_NAME": "TIANMU-1 12", "OBJECT_ID": "2023-205B", "EPOCH": "2025-12-22T13:17:23.306208", "MEAN_MOTION": 15.24596942, "ECCENTRICITY": 0.00058591, "INCLINATION": 97.3581, "RA_OF_ASC_NODE": 15.8066, "ARG_OF_PERICENTER": 246.6772, "MEAN_ANOMALY": 113.3849, "EPHEMERIS_TYPE": 0, "CLASSIFICATION_TYPE": "U", "NORAD_CAT_ID": 58646, "ELEMENT_SET_NO": 999, "REV_AT_EPOCH": 11057, "BSTAR": 0.00027590191, "MEAN_MOTION_DOT": 6.735e-05, "MEAN_MOTION_DDOT": 0}, "tle": {"line1": "1 58646U 23205B   25356.55374197  .00006735  00000+0  27590-3 0  9999", "line2": "2 58646  97.3581  15.8066 0005859 246.6772 113.3849 15.24596942110571"}}, "geometry": {"type": "Point", "coordinates": [159.1154222862589, -77.88003857075165]}}, {"type": "Feature", "properties": {"norad_id": 58647, "name": "TIANMU-1 13", "group": "weather", "lat": 75.78199677456723, "lon": -14.3615146369712, "alt_km": 488.320429842036, "timestamp": "2025-12-22T20:43:45.486643+00:00", "meta": {"OBJECT_NAME": "TIANMU-1 13", "OBJECT_ID": "2023-205C", "EPOCH": "2025-12-22T14:05:17.867040", "MEAN_MOTION": 15.24640294, "ECCENTRICITY": 0.00064469, "INCLINATION": 97.3609, "RA_OF_ASC_NODE": 16.0445, "ARG_OF_PERICENTER": 223.7859, "MEAN_ANOMALY": 136.2869, "EPHEMERIS_TYPE": 0, "CLASSIFICATION_TYPE": "U", "NORAD_CAT_ID": 58647, "ELEMENT_SET_NO": 999, "REV_AT_EPOCH": 11057, "BSTAR": 0.00025984017, "MEAN_MOTION_DOT": 6.347e-05, "MEAN_MOTION_DDOT": 0}, "tle": {"line1": "1 58647U 23205C   25356.58701235  .00006347  00000+0  25984-3 0  9994", "line2": "2 58647  97.3609  16.0445 0006446 223.7859 136.2869 15.24640294110578"}}, "geometry": {"type": "Point", "coordinates": [-14.3615146369712, 75.78199677456723]}}, {"type": "Feature", "properties": {"norad_id": 58648, "name": "TIANMU-1 14", "group": "weather", "lat": 11.55076026614355, "lon": -162.8317284900361, "alt_km": 490.9743064673603, "timestamp": "2025-12-22T20:43:45.486659+00:00", "meta": {"OBJECT_NAME": "TIANMU-1 14", "OBJECT_ID": "2023-205D", "EPOCH": "2025-12-22T13:41:32.919360", "MEAN_MOTION": 15.24622975, "ECCENTRICITY": 0.00071533, "INCLINATION": 97.3541, "RA_OF_ASC_NODE": 15.3679, "ARG_OF_PERICENTER": 230.014, "MEAN_ANOMALY": 130.047, "EPHEMERIS_TYPE": 0, "CLASSIFICATION_TYPE": "U", "NORAD_CAT_ID": 58648, "ELEMENT_SET_NO": 999, "REV_AT_EPOCH": 11057, "BSTAR": 0.00024939957, "MEAN_MOTION_DOT": 6.087e-05, "MEAN_MOTION_DDOT": 0}, "tle": {"line1": "1 58648U 23205D   25356.57051990  .00006087  00000+0  24940-3 0  9992", "line2": "2 58648  97.3541  15.3679 0007153 230.0140 130.0470 15.24622975110571"}}, "geometry": {"type": "Point", "coordinates": [-162.8317284900361, 11.55076026614355]}}, {"type": "Feature", "properties": {"norad_id": 58660, "name": "TIANMU-1 19", "group": "weather", "lat": -5.96924256205532, "lon": -72.9008399921299, "alt_km": 482.6472865492942, "timestamp": "2025-12-22T20:43:45.486675+00:00", "meta": {"OBJECT_NAME": "TIANMU-1 19", "OBJECT_ID": "2023-208A", "EPOCH": "2025-12-22T13:37:52.970880", "MEAN_MOTION": 15.2801773, "ECCENTRICITY": 0.00046354, "INCLINATION": 97.4394, "RA_OF_ASC_NODE": 107.5868, "ARG_OF_PERICENTER": 210.3757, "MEAN_ANOMALY": 149.7215, "EPHEMERIS_TYPE": 0, "CLASSIFICATION_TYPE": "U", "NORAD_CAT_ID": 58660, "ELEMENT_SET_NO": 999, "REV_AT_EPOCH": 11032, "BSTAR": 0.00034331582, "MEAN_MOTION_DOT": 9.313e-05, "MEAN_MOTION_DDOT": 0}, "tle": {"line1": "1 58660U 23208A   25356.56797420  .00009313  00000+0  34332-3 0  9994", "line2": "2 58660  97.4394 107.5868 0004635 210.3757 149.7215 15.28017730110321"}}, "geometry": {"type": "Point", "coordinates": [-72.9008399921299, -5.96924256205532]}}, {"type": "Feature", "properties": {"norad_id": 58661, "name": "TIANMU-1 20", "group": "weather", "lat": -55.80957131541866, "lon": 119.41972267985524, "alt_km": 484.43951881045814, "timestamp": "2025-12-22T20:43:45.486691+00:00", "meta": {"OBJECT_NAME": "TIANMU-1 20", "OBJECT_ID": "2023-208B", "EPOCH": "2025-12-22T14:41:39.968160", "MEAN_MOTION": 15.29208862, "ECCENTRICITY": 0.00066777, "INCLINATION": 97.4333, "RA_OF_ASC_NODE": 108.0883, "ARG_OF_PERICENTER": 224.7148, "MEAN_ANOMALY": 135.3555, "EPHEMERIS_TYPE": 0, "CLASSIFICATION_TYPE": "U", "NORAD_CAT_ID": 58661, "ELEMENT_SET_NO": 999, "REV_AT_EPOCH": 11040, "BSTAR": 0.00034211396, "MEAN_MOTION_DOT": 9.629e-05, "MEAN_MOTION_DDOT": 0}, "tle": {"line1": "1 58661U 23208B   25356.61226815  .00009629  00000+0  34211-3 0  9992", "line2": "2 58661  97.4333 108.0883 0006677 224.7148 135.3555 15.29208862110405"}}, "geometry": {"type": "Point", "coordinates": [119.41972267985524, -55.80957131541866]}}]}